[{"OBJECT_NAME":"STARLINK-35717","OBJECT_ID":"2025-280U","EPOCH":"2026-03-09T22:33:27.809280","MEAN_MOTION":14.98330745,"ECCENTRICITY":0.00026692,"INCLINATION":70.0028,"RA_OF_ASC_NODE":333.8107,"ARG_OF_PERICENTER":274.0028,"MEAN_ANOMALY":86.0826,"EPHEMERIS_TYPE":0,"CLASSIFICATION_TYPE":"U","NORAD_CAT_ID":66839,"ELEMENT_SET_NO":999,"REV_AT_EPOCH":1611,"BSTAR":0.0002972443,"MEAN_MOTION_DOT":3.456e-5,"MEAN_MOTION_DDOT":0},{"OBJECT_NAME":"FENGYUN 1C DEB","OBJECT_ID":"1999-025DEQ","EPOCH":"2026-03-08T16:18:11.400768","MEAN_MOTION":15.03063896,"ECCENTRICITY":0.0041192,"INCLINATION":98.802,"RA_OF_ASC_NODE":149.1421,"ARG_OF_PERICENTER":81.4798,"MEAN_ANOMALY":279.1089,"EPHEMERIS_TYPE":0,"CLASSIFICATION_TYPE":"U","NORAD_CAT_ID":33655,"ELEMENT_SET_NO":999,"REV_AT_EPOCH":97846,"BSTAR":0.0032042236,"MEAN_MOTION_DOT":0.0004416,"MEAN_MOTION_DDOT":0}]
